{
  "norad_id": 53062,
  "name": "STARLINK-4311",
  "history": [
    {
      "epoch": "2026-03-28T12:19:00.450624Z",
      "apogee_km": 550.4985363736705,
      "perigee_km": 548.5296979261775,
      "latitude_deg": -1.8081766048291592e-05,
      "longitude_deg": -101.96274364197664,
      "height_km": 552.5134357017298,
      "semi_major_axis_km": 6927.651117149924,
      "eccentricity": 0.0001421,
      "inclination_deg": 97.603,
      "raan_deg": 268.7217,
      "arg_perigee_deg": 86.2969,
      "mean_anomaly_deg": 273.842,
      "mean_motion_rev_day": 15.05649034
    },
    {
      "epoch": "2026-03-28T23:28:54.586848Z",
      "apogee_km": 550.4776073719058,
      "perigee_km": 548.5683442825675,
      "latitude_deg": 3.910392793036204e-05,
      "longitude_deg": 90.5612491741862,
      "height_km": 552.5903687463133,
      "semi_major_axis_km": 6927.659975827236,
      "eccentricity": 0.0001378,
      "inclination_deg": 97.6033,
      "raan_deg": 269.1798,
      "arg_perigee_deg": 90.2661,
      "mean_anomaly_deg": 269.8724,
      "mean_motion_rev_day": 15.05646146
    },
    {
      "epoch": "2026-03-30T01:00:06.715296Z",
      "apogee_km": 550.6819964114266,
      "perigee_km": 548.3459924960971,
      "latitude_deg": -7.526687147618118e-05,
      "longitude_deg": 67.76075908174253,
      "height_km": 552.3682958530563,
      "semi_major_axis_km": 6927.650994453761,
      "eccentricity": 0.0001686,
      "inclination_deg": 97.6033,
      "raan_deg": 270.2279,
      "arg_perigee_deg": 79.7341,
      "mean_anomaly_deg": 280.4075,
      "mean_motion_rev_day": 15.05649074
    }
  ]
}